STARLINK-36277
1 68305U 26057M   26090.83335647 -.01398608  58131-3 -35418-2 0  9999
2 68305  97.2772 214.2211 0001347  81.2878 149.7257 15.95579763  2936
